LEGION 1                
1 59625U 24081A   24141.57448961  .00012464  00000+0  64649-3 0  9996
2 59625  97.5772 212.6799 0005094 106.9022 253.2770 15.16282265  2691
